STARLINK-33710          
1 63434U 25069B   26114.91668981  .04310483  00000+0  95661-1 0  9994
2 63434  53.1588 287.9304 0000976 106.0533 120.5633 15.39208136  5817
STARLINK-33733          
1 63435U 25069C   26112.91858987  .00026297  00000+0  89708-3 0  9990
2 63435  53.1606 297.2332 0001137  86.4935 273.6196 15.30191269 60174
STARLINK-33638          
1 63436U 25069D   26114.91668981  .03454770  00000+0  89019-1 0  9993
2 63436  53.1591 287.9026 0001621  81.1574 157.3336 15.34786999  5710
STARLINK-33726          
1 63437U 25069E   26112.77951688  .00017251  00000+0  59304-3 0  9997
2 63437  53.1607 297.7862 0001532  93.0464 267.0712 15.30209275 60101
STARLINK-33681          
1 63438U 25069F   26114.20903910  .00031978  00000+0  10855-2 0  9992
2 63438  53.1585 291.0632 0001549 160.2713 199.8348 15.30248276 60371
STARLINK-33730          
1 63439U 25069G   26114.91668981  .03422773  00000+0  81777-1 0  9997
2 63439  53.1593 287.4589 0000781  43.6533  59.8736 15.37193688  5875
STARLINK-33743          
1 63440U 25069H   26112.91225639  .00015080  00000+0  52010-3 0  9992
2 63440  53.1598 297.1880 0001047 115.7826 244.3283 15.30207972 60061
STARLINK-33715          
1 63441U 25069J   26112.90909095  .00017977  00000+0  61740-3 0  9994
2 63441  53.1613 297.1643 0001095 113.8480 246.2636 15.30211251 60175
STARLINK-33762          
1 63442U 25069K   26112.97229427  .00014739  00000+0  50862-3 0  9992
2 63442  53.1619 296.8558 0000787 112.3274 247.7811 15.30209292 60189
STARLINK-33753          
1 63443U 25069L   26112.89642081  .00032220  00000+0  10958-2 0  9995
2 63443  53.1600 297.0900 0000677  72.6305 287.4770 15.30183736 60162
STARLINK-33747          
1 63444U 25069M   26112.89009693  .00013679  00000+0  47307-3 0  9998
2 63444  53.1623 297.0518 0001350  75.4069 284.7081 15.30204057 60121
STARLINK-33659          
1 63445U 25069N   26114.91668981  .03517028  00000+0  87917-1 0  9994
2 63445  53.1602 288.0320 0001227  63.6645 108.0876 15.35669907  5899
STARLINK-33746          
1 63446U 25069P   26114.91668981  .03420099  00000+0  85355-1 0  9990
2 63446  53.1582 287.7397 0001568 101.5940 216.3718 15.35835423  5868
STARLINK-33799          
1 63447U 25069Q   26114.82010405  .00027839  00000+0  94845-3 0  9991
2 63447  53.1588 288.4772 0001142  76.1593 283.9535 15.30203004 60350
STARLINK-33797          
1 63448U 25069R   26113.66754115  .00021056  00000+0  72082-3 0  9990
2 63448  53.1580 293.3689 0000999  98.8231 261.2883 15.30208665 60245
STARLINK-33798          
1 63449U 25069S   26114.91668981  .03455895  00000+0  84052-1 0  9998
2 63449  53.1602 288.0218 0001169  64.2005 105.7668 15.36601553  5821
STARLINK-33736          
1 63450U 25069T   26114.90173180  .00783148  00000+0  23398-1 0  9999
2 63450  53.1585 287.5629 0002030 117.2025 242.9184 15.31696029 60434
STARLINK-33740          
1 63451U 25069U   26114.85798064  .00021733  00000+0  74377-3 0  9998
2 63451  53.1598 287.9991 0001154  76.8608 283.2522 15.30198791 60366
STARLINK-33763          
1 63452U 25069V   26114.91668981  .04619417  00000+0  10425+0 0  9996
2 63452  53.1586 287.4899 0002967 102.0975 336.4703 15.38409321  5901
STARLINK-33784          
1 63453U 25069W   26114.49247312  .00021761  00000+0  74448-3 0  9995
2 63453  53.1588 289.9831 0001548 124.1609 235.9539 15.30209810 60410
STARLINK-33768          
1 63454U 25069X   26112.89536339  .00019200  00000+0  65835-3 0  9993
2 63454  53.1612 297.0658 0000579 225.2027 134.8927 15.30216798 60170
STARLINK-33761          
1 63455U 25069Y   26114.91668981  .03440251  00000+0  92849-1 0  9998
2 63455  53.1577 287.5713 0001482  87.5055 309.8207 15.33327828  5906
STARLINK-33737          
1 63456U 25069Z   26114.91668981  .03417234  00000+0  83531-1 0  9992
2 63456  53.1584 287.6112 0001547  94.2375 278.9192 15.36490747  5892
STARLINK-33795          
1 63457U 25069AA  26112.78901497  .00016574  00000+0  57039-3 0  9993
2 63457  53.1584 297.8350 0001267  78.6385 281.4758 15.30202978 60042
STARLINK-33756          
1 63458U 25069AB  26114.91668981  .03270543  00000+0  74781-1 0  9991
2 63458  53.1590 287.9247 0001665  68.9633 147.2962 15.38735243  5897
STARLINK-33780          
1 63459U 25069AC  26114.91668981  .03489420  00000+0  90323-1 0  9998
2 63459  53.1584 287.5938 0001537  93.1000 290.0564 15.34601129  5908
STARLINK-33679          
1 63460U 25070A   26114.07083870  .00009058  00000+0  33825-3 0  9995
2 63460  43.0026   3.8248 0001279 253.1606 106.9105 15.27581562 59911
STARLINK-33706          
1 63461U 25070B   26114.72855507  .00022184  00000+0  81228-3 0  9997
2 63461  43.0031   0.1289 0001111  77.1725 282.9251 15.27619721 60013
STARLINK-33691          
1 63462U 25070C   26114.74253853  .00025266  00000+0  92420-3 0  9996
2 63462  43.0050 359.3754 0001712 258.1282 101.9378 15.27591240 59975
STARLINK-33696          
1 63463U 25070D   26114.70283619  .00006746  00000+0  25422-3 0  9996
2 63463  43.0017 359.9373 0002033 265.0879  94.9740 15.27609977 60016
STARLINK-33701          
1 63464U 25070E   26114.73240706  .00016656  00000+0  61328-3 0  9996
2 63464  43.0035   0.1586 0000790 262.3408  97.7354 15.27588707 60013
STARLINK-33685          
1 63465U 25070F   26114.97595797  .00018076  00000+0  66499-3 0  9998
2 63465  42.9998 358.5445 0000989 260.8162  99.2578 15.27569361 60058
STARLINK-33654          
1 63466U 25070G   26114.37721071  .00024859  00000+0  91011-3 0  9993
2 63466  43.0036   1.7884 0000171  18.7192 341.3666 15.27569898 59966
STARLINK-33697          
1 63467U 25070H   26114.37977923  .00016477  00000+0  60682-3 0  9990
2 63467  43.0074   1.8231 0000587 316.2581  43.8224 15.27587008 59962
STARLINK-33720          
1 63468U 25070J   26114.70799145  .00024361  00000+0  89167-3 0  9996
2 63468  42.9974 359.9762 0000435 290.6804  69.4001 15.27586938 60017
STARLINK-33587          
1 63469U 25070K   26114.69257200  .00020666  00000+0  75813-3 0  9993
2 63469  43.0000 359.8598 0001177 303.2201  56.8537 15.27592512 60011
STARLINK-33637          
1 63470U 25070L   26114.67087446  .00022689  00000+0  83122-3 0  9995
2 63470  43.0019   0.5567 0001164 272.8347  87.2372 15.27589858 60000
STARLINK-33744          
1 63471U 25070M   26114.98238625  .00022191  00000+0  81287-3 0  9995
2 63471  43.0050 358.5877 0000366  31.6041 328.4833 15.27605769 60058
STARLINK-33766          
1 63472U 25070N   26114.72983921  .00016310  00000+0  60041-3 0  9995
2 63472  43.0022   0.1381 0000820  48.6316 311.4606 15.27608363 60015
STARLINK-33765          
1 63473U 25070P   26114.97339071  .00018559  00000+0  68198-3 0  9992
2 63473  43.0063 358.5227 0001238 278.9539  81.1172 15.27593126 60052
STARLINK-33735          
1 63474U 25070Q   26114.69385797  .00021593  00000+0  79173-3 0  9995
2 63474  43.0008 359.8608 0001255 267.5125  92.5583 15.27587519 60010
STARLINK-33731          
1 63475U 25070R   26114.73369029  .00011124  00000+0  41300-3 0  9991
2 63475  43.0052   0.1659 0001114 267.0106  93.0618 15.27591046 60015
STARLINK-33718          
1 63476U 25070S   26114.68100634  .00014571  00000+0  53783-3 0  9998
2 63476  42.9997 359.7661 0001048 312.9657  47.1107 15.27589116 60013
STARLINK-33630          
1 63477U 25070T   26114.36869347  .00024646  00000+0  90195-3 0  9999
2 63477  43.0037 358.2446 0000655 307.4304  52.6488 15.27587741 60001
STARLINK-33695          
1 63478U 25070U   26114.68277153  .00016804  00000+0  61827-3 0  9990
2 63478  42.9992 356.2964 0001806 279.2158  80.8489 15.27606261 60053
STARLINK-33713          
1 63479U 25070V   26114.35970014  .00016264  00000+0  59906-3 0  9996
2 63479  42.9999 358.1685 0002093  38.6413 321.4588 15.27590419 60008
STARLINK-33721          
1 63480U 25070W   26114.68919380  .00019515  00000+0  71682-3 0  9990
2 63480  42.9992 356.3501 0000563 269.9063  90.1724 15.27579095 60054
STARLINK-33639          
1 63481U 25070X   26114.38154147  .00013466  00000+0  49787-3 0  9990
2 63481  43.0008 358.3319 0000277 329.3814  30.7022 15.27585005 60005
STARLINK-33688          
1 63483U 25070Z   26114.97724377  .00017094  00000+0  62906-3 0  9994
2 63483  43.0075 358.5341 0001542 282.6340  77.4340 15.27589815 60058
STARLINK-33700          
1 63484U 25070AA  26114.69642530  .00015822  00000+0  58309-3 0  9993
2 63484  43.0009 359.8671 0000809 270.5746  89.5013 15.27588321 60015
STARLINK-33687          
1 63485U 25070AB  26114.09636592  .00025207  00000+0  92214-3 0  9990
2 63485  43.0023   3.0620 0001120 291.8704  68.2029 15.27589747 59923
STARLINK-33716          
1 63486U 25070AC  26114.69000228  .00018281  00000+0  67167-3 0  9991
2 63486  43.0003 359.8298 0000740 265.6729  94.4038 15.27605408 60014
STARLINK-33754          
1 63487U 25070AD  26114.05669437  .00012585  00000+0  46581-3 0  9993
2 63487  43.0022   3.6655 0001174 281.2665  78.8054 15.27598492 59917
POSAT-2                 
1 63488U 25009DR  26114.92469273  .00005476  00000+0  32563-3 0  9994
2 63488  97.4861 191.0108 0005013 340.2455  19.8581 15.11657851 58597
HERMES-6                
1 63489U 25052BK  26114.98139720  .00007006  00000+0  30609-3 0  9990
2 63489  97.4054   8.2463 0006646  15.2978 344.8459 15.22395876 61730
HYDRA-W                 
1 63490U 25052BL  26112.26439385  .02130398  41366-2  26477-2 0  9994
2 63490  97.3739  16.4004 0007523 180.8298 179.2974 16.08789288 62060
HADES-ICM               
1 63492U 25052BN  26114.71952330  .00287832  00000+0  18108-2 0  9991
2 63492  97.3833  17.4224 0003045 119.3515 240.8055 15.75884874 62342
STARLINK-33828          
1 63493U 25071A   26114.91668981  .03314821  00000+0  77367-1 0  9994
2 63493  53.1596 287.3257 0001375  69.8814  79.4984 15.38047691  5877
STARLINK-33819          
1 63494U 25071B   26112.93746498  .00017069  00000+0  58721-3 0  9991
2 63494  53.1587 296.5875 0001092  70.1713 289.9406 15.30194988 59493
